STARLINK-1362           
1 45538U 20025H   26068.46001677  .00001315  00000+0  56520-4 0  9998
2 45538  53.1615 102.0656 0001370  93.0960 267.0198 15.30206066325143
NUSHSAT1                
1 63211U 25052B   26068.64700493  .00023034  00000+0  74857-3 0  9997
2 63211  97.4095 325.7239 0005501  84.7512 275.4357 15.31903202 54882
